GLOBAL-31               
1 63027U 25033B   26204.25015691  .00013197  00000+0  35206-3 0  9993
2 63027  58.9971 170.4348 0012731  60.8983 299.3366 15.38443624 79873
GLOBAL-32               
1 64231U 25118B   26204.05414028  .00012241  00000+0  32016-3 0  9995
2 64231  58.9923 347.3832 0014945  67.3445 292.9210 15.39091394 63767
GLOBAL-33               
1 66554U 25267A   26204.36336316  .00010811  00000+0  29520-3 0  9994
2 66554  42.0177 205.7067 0008776 155.7587 204.3666 15.37350190 37610
GLOBAL-34               
1 68098U 26043A   26204.77295451  .00010687  00000+0  33284-3 0  9994
2 68098  42.0223   9.1349 0003133 209.3043 150.7619 15.33246420 21443
