{"fetched_at":"2026-07-24T07:06:30.612Z","source":"https://celestrak.org/NORAD/elements/gp.php?NAME=GLOBAL&FORMAT=JSON","constellation":"blacksky-gen3","records":[{"OBJECT_NAME":"GLOBAL-31","OBJECT_ID":"2025-033B","EPOCH":"2026-07-23T06:00:13.557024","CLASSIFICATION_TYPE":"U","MEAN_MOTION":15.38443624,"ECCENTRICITY":0.0012731,"INCLINATION":58.9971,"RA_OF_ASC_NODE":170.4348,"ARG_OF_PERICENTER":60.8983,"MEAN_ANOMALY":299.3366,"EPHEMERIS_TYPE":0,"NORAD_CAT_ID":63027,"ELEMENT_SET_NO":999,"REV_AT_EPOCH":7987,"BSTAR":0.00035206,"MEAN_MOTION_DOT":0.00013197,"MEAN_MOTION_DDOT":0},{"OBJECT_NAME":"GLOBAL-32","OBJECT_ID":"2025-118B","EPOCH":"2026-07-23T01:17:57.720192","CLASSIFICATION_TYPE":"U","MEAN_MOTION":15.39091394,"ECCENTRICITY":0.0014945,"INCLINATION":58.9923,"RA_OF_ASC_NODE":347.3832,"ARG_OF_PERICENTER":67.3445,"MEAN_ANOMALY":292.921,"EPHEMERIS_TYPE":0,"NORAD_CAT_ID":64231,"ELEMENT_SET_NO":999,"REV_AT_EPOCH":6376,"BSTAR":0.00032016,"MEAN_MOTION_DOT":0.00012241,"MEAN_MOTION_DDOT":0},{"OBJECT_NAME":"GLOBAL-33","OBJECT_ID":"2025-267A","EPOCH":"2026-07-23T08:43:14.577024","CLASSIFICATION_TYPE":"U","MEAN_MOTION":15.3735019,"ECCENTRICITY":0.0008776,"INCLINATION":42.0177,"RA_OF_ASC_NODE":205.7067,"ARG_OF_PERICENTER":155.7587,"MEAN_ANOMALY":204.3666,"EPHEMERIS_TYPE":0,"NORAD_CAT_ID":66554,"ELEMENT_SET_NO":999,"REV_AT_EPOCH":3761,"BSTAR":0.0002952,"MEAN_MOTION_DOT":0.00010811,"MEAN_MOTION_DDOT":0},{"OBJECT_NAME":"GLOBAL-34","OBJECT_ID":"2026-043A","EPOCH":"2026-07-23T18:33:03.269664","CLASSIFICATION_TYPE":"U","MEAN_MOTION":15.3324642,"ECCENTRICITY":0.0003133,"INCLINATION":42.0223,"RA_OF_ASC_NODE":9.1349,"ARG_OF_PERICENTER":209.3043,"MEAN_ANOMALY":150.7619,"EPHEMERIS_TYPE":0,"NORAD_CAT_ID":68098,"ELEMENT_SET_NO":999,"REV_AT_EPOCH":2144,"BSTAR":0.00033284,"MEAN_MOTION_DOT":0.00010687,"MEAN_MOTION_DDOT":0}]}
